ONEWEB-0415             
1 51624U 22012C   24320.90706313  .00000041  00000+0  81572-4 0  9996
2 51624  87.8892 151.4269 0001254  81.0063 279.1206 13.10375376133550
ONEWEB-0416             
1 51625U 22012D   24320.91868489  .00000652  00000+0  18321-2 0  9999
2 51625  87.8895 151.4281 0001493  87.8299 272.2999 13.10371387133593
ONEWEB-0422             
1 51626U 22012E   24320.89753589  .00000029  00000+0  40423-4 0  9999
2 51626  87.9072 121.0510 0002058  72.4813 287.6544 13.17651270137656
ONEWEB-0423             
1 51627U 22012F   24320.89079407 -.00000001  00000+0 -36432-4 0  9997
2 51627  87.9073 121.0556 0001714  92.7878 267.3450 13.17647516137549
ONEWEB-0425             
1 51628U 22012G   24320.92867116  .00000038  00000+0  71673-4 0  9998
2 51628  87.8889 151.4047 0001713  97.9671 262.1651 13.10369720133591
ONEWEB-0428             
1 51629U 22012H   24320.90872769  .00000801  00000+0  22584-2 0  9990
2 51629  87.8896 151.4263 0001529  75.8484 284.2813 13.10377469133552
ONEWEB-0431             
1 51630U 22012J   24320.80232347 -.00000573  00000+0 -16782-2 0  9994
2 51630  87.8893 151.4349 0001339  60.0559 300.0701 13.10372174133599
ONEWEB-0434             
1 51631U 22012K   24320.93195673 -.00000123  00000+0 -38865-3 0  9997
2 51631  87.8892 151.4338 0001685  84.8269 275.3051 13.10368919133597
